[{"OBJECT_NAME":"SITRO-AIS 24","OBJECT_ID":"2024-199G","EPOCH":"2026-03-09T22:55:13.311552","MEAN_MOTION":14.95574575,"ECCENTRICITY":0.00134035,"INCLINATION":97.3325,"RA_OF_ASC_NODE":273.3822,"ARG_OF_PERICENTER":42.6191,"MEAN_ANOMALY":317.6069,"EPHEMERIS_TYPE":0,"CLASSIFICATION_TYPE":"U","NORAD_CAT_ID":61741,"ELEMENT_SET_NO":999,"REV_AT_EPOCH":11705,"BSTAR":0.00037285708,"MEAN_MOTION_DOT":4.091e-5,"MEAN_MOTION_DDOT":0},{"OBJECT_NAME":"STARLINK-34624","OBJECT_ID":"2025-150R","EPOCH":"2026-03-09T14:53:15.378432","MEAN_MOTION":14.98330857,"ECCENTRICITY":0.000372,"INCLINATION":70.0015,"RA_OF_ASC_NODE":134.7437,"ARG_OF_PERICENTER":267.4262,"MEAN_ANOMALY":92.6471,"EPHEMERIS_TYPE":0,"CLASSIFICATION_TYPE":"U","NORAD_CAT_ID":64805,"ELEMENT_SET_NO":999,"REV_AT_EPOCH":3650,"BSTAR":0.00045601,"MEAN_MOTION_DOT":5.353e-5,"MEAN_MOTION_DDOT":0}]
